NORAD_CAT_ID,OBJECT_NAME,OBJECT_TYPE,EPOCH,MEAN_MOTION,ECCENTRICITY,INCLINATION,RA_OF_ASC_NODE,ARG_OF_PERICENTER,MEAN_ANOMALY,BSTAR,MEAN_MOTION_DOT,MEAN_MOTION_DDOT,TLE_LINE0,TLE_LINE1,TLE_LINE2,SEMIMAJOR_AXIS,PERIOD,APOGEE,PERIGEE,DECAYED
52614.0,STARLINK-3982,PAYLOAD,2023-04-06 04:11:53,15.08845857,0.0001139,53.2177,25.8675,105.9638,254.148,0.00048015,7.363e-05,0.0,0 STARLINK-3982,1 52614U 22052S   23096.17492938  .00007363  00000-0  48015-3 0  9992,2 52614  53.2177  25.8675 0001139 105.9638 254.1480 15.08845857 49686,6917.862,95.437,540.515,538.94,0.0
52614.0,STARLINK-3982,PAYLOAD,2023-04-07 02:27:17,15.08842094,0.0001125,53.2172,21.7056,109.4827,250.6287,0.00011798,1.59e-05,0.0,0 STARLINK-3982,1 52614U 22052S   23097.10229155  .00001590  00000-0  11798-3 0  9999,2 52614  53.2172  21.7056 0001125 109.4827 250.6287 15.08842094 50197,6917.874,95.437,540.517,538.961,0.0
52614.0,STARLINK-3982,PAYLOAD,2023-04-07 04:02:41,15.08846187,0.0001127,53.2174,21.4087,108.6078,251.5036,0.00020442,2.968e-05,0.0,0 STARLINK-3982,1 52614U 22052S   23097.16853023  .00002968  00000-0  20442-3 0  9998,2 52614  53.2174  21.4087 0001127 108.6078 251.5036 15.08846187 49839,6917.861,95.437,540.506,538.947,0.0
52614.0,STARLINK-3982,PAYLOAD,2023-04-08 03:53:27,15.08851871,0.0001163,53.2182,16.9463,93.9015,266.211,0.00029006,4.333e-05,0.0,0 STARLINK-3982,1 52614U 22052S   23098.16212778  .00004333  00000-0  29006-3 0  9998,2 52614  53.2182  16.9463 0001163  93.9015 266.2110 15.08851871 50353,6917.844,95.437,540.514,538.905,0.0
52614.0,STARLINK-3982,PAYLOAD,2023-04-08 18:11:56,15.08844149,0.000127,53.2179,14.2723,90.2591,269.8547,0.00012241,1.661e-05,0.0,0 STARLINK-3982,1 52614U 22052S   23098.75829187  .00001661  00000-0  12241-3 0  9995,2 52614  53.2179  14.2723 0001270  90.2591 269.8547 15.08844149 50440,6917.868,95.437,540.611,538.854,0.0
52614.0,STARLINK-3982,PAYLOAD,2023-04-09 03:44:14,15.08852123,0.0001215,53.2179,12.4865,95.8256,264.2875,0.0002629,3.9e-05,0.0,0 STARLINK-3982,1 52614U 22052S   23099.15572752  .00003900  00000-0  26290-3 0  9990,2 52614  53.2179  12.4865 0001215  95.8256 264.2875 15.08852123 50135,6917.843,95.437,540.549,538.868,0.0
52614.0,STARLINK-3982,PAYLOAD,2023-04-10 00:24:16,15.08836774,0.0001047,53.2178,8.6208,80.3962,279.7149,-1.6839e-05,-5.56e-06,0.0,0 STARLINK-3982,1 52614U 22052S   23100.01685560 -.00000556  00000-0 -16839-4 0  9995,2 52614  53.2178   8.6208 0001047  80.3962 279.7149 15.08836774 50632,6917.89,95.438,540.48,539.031,0.0
52614.0,STARLINK-3982,PAYLOAD,2023-04-11 00:15:05,15.0883741,0.0001372,53.2171,4.1595,97.1411,262.9737,0.00044788,6.847e-05,0.0,0 STARLINK-3982,1 52614U 22052S   23101.01047813  .00006847  00000-0  44788-3 0  9999,2 52614  53.2171   4.1595 0001372  97.1411 262.9737 15.08837410 50782,6917.888,95.438,540.702,538.804,0.0
52614.0,STARLINK-3982,PAYLOAD,2023-04-11 03:25:51,15.08841003,0.0001302,53.2177,3.5659,93.4313,266.6828,0.00051011,7.84e-05,0.0,0 STARLINK-3982,1 52614U 22052S   23101.14295740  .00007840  00000-0  51011-3 0  9998,2 52614  53.2177   3.5659 0001302  93.4313 266.6828 15.08841003 50432,6917.877,95.437,540.643,538.842,0.0
52614.0,STARLINK-3982,PAYLOAD,2023-04-12 03:16:37,15.08862792,0.0001296,53.2177,359.1053,89.5333,270.5808,0.0006763,0.00010498,0.0,0 STARLINK-3982,1 52614U 22052S   23102.13654946  .00010498  00000-0  67630-3 0  9992,2 52614  53.2177 359.1053 0001296  89.5333 270.5808 15.08862792 50957,6917.811,95.436,540.572,538.779,0.0
52614.0,STARLINK-3982,PAYLOAD,2023-04-12 23:56:37,15.08859208,0.0001675,53.2174,355.239,90.7702,269.3482,9.2683e-05,1.188e-05,0.0,0 STARLINK-3982,1 52614U 22052S   23102.99766172  .00001188  00000-0  92683-4 0  9994,2 52614  53.2174 355.2390 0001675  90.7702 269.3482 15.08859208 50716,6917.822,95.436,540.845,538.528,0.0
52614.0,STARLINK-3982,PAYLOAD,2023-04-14 02:58:10,15.08852813,0.0001195,53.2181,350.1843,84.5058,275.607,-7.8547e-05,-1.538e-05,0.0,0 STARLINK-3982,1 52614U 22052S   23104.12373691 -.00001538  00000-0 -78547-4 0  9995,2 52614  53.2181 350.1843 0001195  84.5058 275.6070 15.08852813 50889,6917.841,95.437,540.533,538.88,0.0
52614.0,STARLINK-3982,PAYLOAD,2023-04-15 01:13:34,15.08846813,0.0001089,53.2174,346.0201,84.9862,275.1254,0.00013054,1.791e-05,0.0,0 STARLINK-3982,1 52614U 22052S   23105.05109867  .00001791  00000-0  13054-3 0  9990,2 52614  53.2174 346.0201 0001089  84.9862 275.1254 15.08846813 51391,6917.86,95.437,540.478,538.971,0.0
52614.0,STARLINK-3982,PAYLOAD,2023-04-15 21:53:35,15.0884516,9.43e-05,53.2175,342.1553,93.0383,267.0717,0.0001099,1.462e-05,0.0,0 STARLINK-3982,1 52614U 22052S   23105.91221819  .00001462  00000-0  10990-3 0  9998,2 52614  53.2175 342.1553 0000943  93.0383 267.0717 15.08845160 51158,6917.865,95.437,540.382,539.077,0.0
52614.0,STARLINK-3982,PAYLOAD,2023-04-16 01:04:21,15.08847163,9.15e-05,53.2179,341.5599,106.3384,253.7708,0.00015117,2.119e-05,0.0,0 STARLINK-3982,1 52614U 22052S   23106.04469634  .00002119  00000-0  15117-3 0  9998,2 52614  53.2179 341.5599 0000915 106.3384 253.7708 15.08847163 51172,6917.858,95.437,540.356,539.091,0.0
52614.0,STARLINK-3982,PAYLOAD,2023-04-16 20:08:59,15.08838948,8.99e-05,53.218,337.9904,116.4767,243.6317,-3.0079e-05,-7.66e-06,0.0,0 STARLINK-3982,1 52614U 22052S   23106.83958237 -.00000766  00000-0 -30079-4 0  9990,2 52614  53.2180 337.9904 0000899 116.4767 243.6317 15.08838948 51660,6917.884,95.438,540.371,539.127,0.0
52614.0,STARLINK-3982,PAYLOAD,2023-04-16 21:44:23,15.08839376,8.28e-05,53.2174,337.6939,114.8734,245.2344,-2.9263e-05,-7.53e-06,0.0,0 STARLINK-3982,1 52614U 22052S   23106.90582215 -.00000753  00000-0 -29263-4 0  9996,2 52614  53.2174 337.6939 0000828 114.8734 245.2344 15.08839376 51301,6917.882,95.438,540.32,539.174,0.0
52614.0,STARLINK-3982,PAYLOAD,2023-04-17 21:35:09,15.08846162,6.59e-05,53.2164,333.2357,103.8303,256.2762,6.4716e-05,7.43e-06,0.0,0 STARLINK-3982,1 52614U 22052S   23107.89942084  .00000743  00000-0  64716-4 0  9998,2 52614  53.2164 333.2357 0000659 103.8303 256.2762 15.08846162 51451,6917.862,95.437,540.182,539.271,0.0
52614.0,STARLINK-3982,PAYLOAD,2023-04-18 00:45:56,15.08850686,8.1e-05,53.2169,332.6396,108.4207,251.6873,0.00016082,2.273e-05,0.0,0 STARLINK-3982,1 52614U 22052S   23108.03189871  .00002273  00000-0  16082-3 0  9994,2 52614  53.2169 332.6396 0000810 108.4207 251.6873 15.08850686 51846,6917.848,95.437,540.273,539.152,0.0
52614.0,STARLINK-3982,PAYLOAD,2023-04-18 15:04:25,15.08839273,9.77e-05,53.2155,329.9633,95.6107,264.4997,0.00017069,2.43e-05,0.0,0 STARLINK-3982,1 52614U 22052S   23108.62806872  .00002430  00000-0  17069-3 0  9997,2 52614  53.2155 329.9633 0000977  95.6107 264.4997 15.08839273 51561,6917.883,95.438,540.423,539.072,0.0
52614.0,STARLINK-3982,PAYLOAD,2023-04-19 00:36:43,15.08846761,6.91e-05,53.2165,328.18,69.3156,290.791,0.00023173,3.403e-05,0.0,0 STARLINK-3982,1 52614U 22052S   23109.02550531  .00003403  00000-0  23173-3 0  9994,2 52614  53.2165 328.1800 0000691  69.3156 290.7910 15.08846761 51628,6917.86,95.437,540.203,539.247,0.0
52614.0,STARLINK-3982,PAYLOAD,2023-04-19 21:16:44,15.08846899,7.33e-05,53.2164,324.3132,64.8638,295.243,0.00014661,2.047e-05,0.0,0 STARLINK-3982,1 52614U 22052S   23109.88662439  .00002047  00000-0  14661-3 0  9994,2 52614  53.2164 324.3132 0000733  64.8638 295.2430 15.08846899 51758,6917.859,95.437,540.231,539.217,0.0
52614.0,STARLINK-3982,PAYLOAD,2023-04-20 00:27:30,15.0885494,7.49e-05,53.216,323.7184,64.4219,295.6851,0.00030905,4.636e-05,0.0,0 STARLINK-3982,1 52614U 22052S   23110.01910117  .00004636  00000-0  30905-3 0  9995,2 52614  53.2160 323.7184 0000749  64.4219 295.6851 15.08854940 52143,6917.835,95.437,540.218,539.182,0.0
52614.0,STARLINK-3982,PAYLOAD,2023-04-20 13:10:36,15.08840712,0.000167,53.2155,321.3401,64.1473,295.9692,9.4204e-05,1.212e-05,0.0,0 STARLINK-3982,1 52614U 22052S   23110.54902857  .00001212  00000-0  94204-4 0  9995,2 52614  53.2155 321.3401 0001670  64.1473 295.9692 15.08840712 51851,6917.878,95.438,540.898,538.588,0.0
52614.0,STARLINK-3982,PAYLOAD,2023-04-20 21:07:31,15.08841257,9.7e-05,53.215,319.8523,77.6393,282.4708,4.8855e-05,4.9e-06,0.0,0 STARLINK-3982,1 52614U 22052S   23110.88022685  .00000490  00000-0  48855-4 0  9992,2 52614  53.2150 319.8523 0000970  77.6393 282.4708 15.08841257 51905,6917.877,95.437,540.413,539.071,0.0
52614.0,STARLINK-3982,PAYLOAD,2023-04-21 06:39:50,15.0883671,7.65e-05,53.2159,318.0684,80.2392,279.8686,-1.8678e-05,-5.85e-06,0.0,0 STARLINK-3982,1 52614U 22052S   23111.27766853 -.00000585  00000-0 -18678-4 0  9995,2 52614  53.2159 318.0684 0000765  80.2392 279.8686 15.08836710 51963,6917.89,95.438,540.285,539.226,0.0
52614.0,STARLINK-3982,PAYLOAD,2023-04-22 00:09:04,15.0885267,7.92e-05,53.2165,314.7974,81.6664,278.4417,0.00015153,2.126e-05,0.0,0 STARLINK-3982,1 52614U 22052S   23112.00630232  .00002126  00000-0  15153-3 0  9993,2 52614  53.2165 314.7974 0000792  81.6664 278.4417 15.08852670 52446,6917.842,95.437,540.255,539.159,0.0
52614.0,STARLINK-3982,PAYLOAD,2023-04-22 16:02:56,15.08837085,9.27e-05,53.2161,311.8255,89.7571,270.3527,5.2831e-05,5.53e-06,0.0,0 STARLINK-3982,1 52614U 22052S   23112.66870902  .00000553  00000-0  52831-4 0  9992,2 52614  53.2161 311.8255 0000927  89.7571 270.3527 15.08837085 52545,6917.889,95.438,540.396,539.113,0.0
52614.0,STARLINK-3982,PAYLOAD,2023-04-23 01:35:14,15.08846015,8.92e-05,53.2157,310.0384,87.3208,272.7886,0.00015356,2.157e-05,0.0,0 STARLINK-3982,1 52614U 22052S   23113.06614571  .00002157  00000-0  15356-3 0  9997,2 52614  53.2157 310.0384 0000892  87.3208 272.7886 15.08846015 52600,6917.862,95.437,540.344,539.11,0.0
52614.0,STARLINK-3982,PAYLOAD,2023-04-23 12:42:57,15.0882712,5.68e-05,53.217,307.9574,75.7522,284.3533,-6.188e-05,-1.272e-05,0.0,0 STARLINK-3982,1 52614U 22052S   23113.52983714 -.00001272  00000-0 -61880-4 0  9999,2 52614  53.2170 307.9574 0000568  75.7522 284.3533 15.08827120 52302,6917.92,95.438,540.178,539.392,0.0
